[Satellite]
VERSION=1.1
NAME=FLOCK 3M-4
NICKNAME=FLOCK 3M-4
TLE1=1 42997U 17068L   18021.13701634  .00002735  00000-0  13560-3 0  9995
TLE2=2 42997  97.3615 138.1665 0015450 306.3287  53.6521 15.18471719 12322
